2026-05-17 03:52:34 | DEBUG | strands_evaluation.instrumentation.agent_plugins | Tool result: {"dataset_id": "kramabench-astronomy-easy-6", "file_path": "files/space-track/58214_storm.csv", "s3_uri": "s3://sana-kramabench/datagov/kramabench-astronomy-easy-6/files/space-track/58214_storm.csv", "size_bytes": 8029, "family": "csv", "preview_text": "CCSDS_OMM_VERS,COMMENT,CREATION_DATE,ORIGINATOR,OBJECT_NAME,OBJECT_ID,CENTER_NAME,REF_FRAME,TIME_SYSTEM,MEAN_ELEMENT_THEORY,EPOCH,MEAN_MOTION,ECCENTRICITY,INCLINATION,RA_OF_ASC_NODE,ARG_OF_PERICENTER,MEAN_ANOMALY,EPHEMERIS_TYPE,CLASSIFICATION_TYPE,NORAD_CAT_ID,ELEMENT_SET_NO,REV_AT_EPOCH,BSTAR,MEAN_MOTION_DOT,MEAN_MOTION_DDOT,SEMIMAJOR_AXIS,PERIOD,APOAPSIS,PERIAPSIS,OBJECT_TYPE,RCS_SIZE,COUNTRY_CODE,LAUNCH_DATE,SITE,DECAY_DATE,FILE,GP_ID,TLE_LINE0,TLE_LINE1,TLE_LINE2\n\"2.0\",\"GENERATED VIA SPACE-TRACK.ORG API\",\"2024-05-10T17:44:02\",\"18 SPCS\",\"STARLINK-30805\",\"2023-170J\",\"EARTH\",\"TEME\",\"UTC\",\"SGP4\",\"2024-05-10T13:03:59.806080\",\"15.02537535\",\"0.00028990\",\"43.0080\",\"226.3847\",\"278.1214\",\"81.9299\",\"0\",\"U\",\"58214\",\"999\",\"2977\",\"-0.00026920000000\",\"-0.00003839\",\"0.0000000000000\",\"6937.212\",\"95.838\",\"561.088\",\"557.066\",\"PAYLOAD\",\"LARGE\",\"US\",\"2023-11-03\",\"AFETR\",\"\",\"4312738\",\"256888979\",\"0 STARLINK-30805\",\"1 58214U 23170J   24131.54444220 -.00003839  00000-0 -26920-3 0  9996\",\"2 58214  43.0080 226.3847 0002899 278.1214  81.9299 15.02537535 29771\"\n\"2.0\",\"GENERATED VIA SPACE-TRACK.ORG API\",\"2024-05-11T02:49:57\",\"18 SPCS\",\"STARLINK-30805\",\"2023-170J\",\"EARTH\",\"TEME\",\"UTC\",\"SGP4\",\"2024-05-10T16:15:27.229536\",\"15.02540313\",\"0.00014720\",\"43.0037\",\"225.6614\",\"276.8779\",\"83.1896\",\"0\",\"U\",\"58214\",\"999\",\"2979\",\"-0.00009585500000\",\"-0.00001498\",\"0.0000000000000\",\"6937.203\",\"95.838\",\"560.089\",\"558.047\",\"PAYLOAD\",\"LARGE\",\"US\",\"2023-11-03\",\"AFETR\",\"\",\"4313042\",\"256923769\",\"0 STARLINK-30805\",\"1 58214U 23170J   24131.67739849 -.00001498  00000-0 -95855-4 0  9997\",\"2 58214  43.0037 225...
2026-05-17 03:52:34 | INFO | strands_evaluation.instrumentation.agent_plugins | 
--- Turn 5 (elapsed: 7.1s) ---
2026-05-17 03:52:35 | DEBUG | strands_evaluation.instrumentation.agent_plugins | Model response #5 [stop_reason=tool_use]
2026-05-17 03:52:35 | DEBUG | strands_evaluation.instrumentation.agent_plugins | Model response #5 [role=assistant block=1 tool_use] download({"files": [{"s3_uri": "s3://sana-kramabench/datagov/kramabench-astronomy-easy-6/files/space-track/58214_quiet.csv"}, {"s3_uri": "s3://sana-kramabench/datagov/kramabench-astronomy-easy-6/files/space-track/58214_storm.csv"}]}) [toolUseId=call_Leiqr7XKCHGnUMDN4jCW3eMh]
2026-05-17 03:52:35 | INFO | strands_evaluation.instrumentation.agent_plugins | Executing: download({"files": [{"s3_uri": "s3://sana-kramabench/datagov/kramabench-astronomy-easy-6/files/space-track/58214_quiet.csv"}, {"s3_uri": "s3://sana-kramabench/datagov/kramabench-astronomy-easy-6/files/space-track/58214_storm.csv"}]})
2026-05-17 03:52:52 | DEBUG | strands_evaluation.instrumentation.agent_plugins | Tool result: {"downloaded": [{"local_path": "/home/ec2-user/eval_eqa/exploratory-qa-eval/.sandbox_isolated/task_1620125_1778989947728/kramabench-astronomy-easy-6/files/space-track/58214_quiet.csv", "file_path": "files/space-track/58214_quiet.csv", "dataset_id": "kramabench-astronomy-easy-6", "s3_uri": "s3://sana-kramabench/datagov/kramabench-astronomy-easy-6/files/space-track/58214_quiet.csv", "size": 5115, "status": "downloaded"}, {"local_path": "/home/ec2-user/eval_eqa/exploratory-qa-eval/.sandbox_isolated/task_1620125_1778989947728/kramabench-astronomy-easy-6/files/space-track/58214_storm.csv", "file_path": "files/space-track/58214_storm.csv", "dataset_id": "kramabench-astronomy-easy-6", "s3_uri": "s3://sana-kramabench/datagov/kramabench-astronomy-easy-6/files/space-track/58214_storm.csv", "size": 8029, "status": "downloaded"}], "download_count": 2, "sandbox_dir": "/home/ec2-user/eval_eqa/exploratory-qa-eval/.sandbox_isolated/task_1620125_1778989947728", "path_map": {"s3://sana-kramabench/datagov/kramabench-astronomy-easy-6/files/space-track/58214_quiet.csv": "/home/ec2-user/eval_eqa/exploratory-qa-eval/.sandbox_isolated/task_1620125_1778989947728/kramabench-astronomy-easy-6/files/space-track/58214_quiet.csv", "kramabench-astronomy-easy-6/files/space-track/58214_quiet.csv": "/home/ec2-user/eval_eqa/exploratory-qa-eval/.sandbox_isolated/task_1620125_1778989947728/kramabench-astronomy-easy-6/files/space-track/58214_quiet.csv", "kramabench-astronomy-easy-6:files/space-track/58214_quiet.csv": "/home/ec2-user/eval_eqa/exploratory-qa-eval/.sandbox_isolated/task_1620125_1778989947728/kramabench-astronomy-easy-6/files/space-track/58214_quiet.csv", "s3://sana-kramabench/datagov/kramabench-astronomy-easy-6/files/space-track/58214_storm.csv": "/home/ec2-user/eval_eqa/exploratory-qa-eval/.sandbox_isolated/task_1620125_1778989947728/kramabench-astronomy-easy-6/files/space-track/58214_storm.csv", "kramabench-astronomy-easy-6/files/space-track/58214_storm.csv": "/home/ec2-user/eval_eqa/expl...
2026-05-17 03:52:52 | INFO | strands_evaluation.instrumentation.agent_plugins | 
--- Turn 6 (elapsed: 24.5s) ---
2026-05-17 03:52:55 | DEBUG | strands_evaluation.instrumentation.agent_plugins | Model response #6 [stop_reason=tool_use]
2026-05-17 03:52:55 | DEBUG | strands_evaluation.instrumentation.agent_plugins | Model response #6 [role=assistant block=1 tool_use] execute_code({"code": "import pandas as pd, numpy as np\nmu=398600.4418\n# Earth radius not needed\nquiet_path = 'kramabench-astronomy-easy-6/files/space-track/58214_quiet.csv'\nstorm_path = 'kramabench-astronomy-easy-6/files/space-track/58214_storm.csv'\nquiet = pd.read_csv(SANDBOX_DIR + '/' + quiet_path)\nstorm = pd.read_csv(SANDBOX_DIR + '/' + storm_path)\n\nfor df,name in [(quiet,'quiet'),(storm,'storm')]:\n    # Parse epoch and select semi-major axis from column if present\n    df['EPOCH']=pd.to_datetime(df['EPOCH'])\n    assert 'SEMIMAJOR_AXIS' in df.columns\n    # ensure numeric\n    df['SEMIMAJOR_AXIS']=pd.to_numeric(df['SEMIMAJOR_AXIS'], errors='coerce')\n    df=df.sort_values('EPOCH')\n    if name=='quiet':\n        start=pd.Timestamp('2024-05-01T00:00:00Z')\n        end=pd.Timestamp('2024-05-04T23:59:59Z')\n    else:\n        start=pd.Timestamp('2024-05-10T00:00:00Z')\n        end=pd.Timestamp('2024-05-13T23:59:59Z')\n    m=(df['EPOCH']>=start.tz_localize(None)) & (df['EPOCH']<=end.tz_localize(None))\n    sub=df[m].copy()\n    print(name,'rows',len(sub),'EPOCH range',sub['EPOCH'].min(),sub['EPOCH'].max())\n    print(sub[['EPOCH','SEMIMAJOR_AXIS']].head(3).to_string(index=False))\n    # compute average decay rate using first and last points\n    a0=sub['SEMIMAJOR_AXIS'].iloc[0]\n    a1=sub['SEMIMAJOR_AXIS'].iloc[-1]\n    dt=(sub['EPOCH'].iloc[-1]-sub['EPOCH'].iloc[0]).total_seconds()/86400\n    rate=(a0-a1)/dt\n    print('a0,a1,dt,rate',a0,a1,dt,rate)\n    if name=='quiet':\n        quiet_rate=rate\n        quiet_dt=dt\n    else:\n        storm_rate=rate\n        storm_dt=dt\n\nprint('quiet_rate',quiet_rate,'storm_rate',storm_rate)\n"}) [toolUseId=call_fFAn3svjo5kcl3VmDoJaNe0N]
2026-05-17 03:52:55 | INFO | strands_evaluation.instrumentation.agent_plugins | Executing: execute_code({"code": "import pandas as pd, numpy as np\nmu=398600.4418\n# Earth radius not needed\nquiet_path = 'kramabench-astronomy-easy-6/files/space-track/58214_quiet.csv'\nstorm_path = 'kramabench-astronomy-easy-6/files/space-track/58214_storm.csv'\nquiet = pd.read_csv(SANDBOX_DIR + '/' + quiet_path)\nstorm = pd.read_csv(SANDBOX_DIR + '/' + storm_path)\n\nfor df,name in [(quiet,'quiet'),(storm,'storm')]:\n    # Parse epoch and select semi-major axis from column if present\n    df['EPOCH']=pd.to_datetime(df['EPOCH'])\n    assert 'SEMIMAJOR_AXIS' in df.columns\n    # ensure numeric\n    df['SEMIMAJOR_AXIS']=pd.to_numeric(df['SEMIMAJOR_AXIS'], errors='coerce')\n    df=df.sort_values('EPOCH')\n    if name=='quiet':\n        start=pd.Timestamp('2024-05-01T00:00:00Z')\n        end=pd.Timestamp('2024-05-04T23:59:59Z')\n    else:\n        start=pd.Timestamp('2024-05-10T00:00:00Z')\n        end=pd.Timestamp('2024-05-13T23:59:59Z')\n    m=(df['EPOCH']>=start.tz_localize(None)) & (df['EPOCH']<=end.tz_localize(None))\n    sub=df[m].copy()\n    print(name,'rows',len(sub),'EPOCH range',sub['EPOCH'].min(),sub['EPOCH'].max())\n    print(sub[['EPOCH','SEMIMAJOR_AXIS']].head(3).to_string(index=False))\n    # compute average decay rate using first and last points\n    a0=sub['SEMIMAJOR_AXIS'].iloc[0]\n    a1=sub['SEMIMAJOR_AXIS'].iloc[-1]\n    dt=(sub['EPOCH'].iloc[-1]-sub['EPOCH'].iloc[0]).total_seconds()/86400\n    rate=(a0-a1)/dt\n    print('a0,a1,dt,rate',a0,a1,dt,rate)\n    if name=='quiet':\n        quiet_rate=rate\n        quiet_dt=dt\n    else:\n        storm_rate=rate\n        storm_dt=dt\n\nprint('quiet_rate',quiet_rate,'storm_rate',storm_rate)\n"})
